CCSDS_OMM_VERS = 2.0
CREATION_DATE  = 
ORIGINATOR     = 

OBJECT_NAME    = IDEFIX & ARIANE 42P R/B
OBJECT_ID      = 2002-021B
CENTER_NAME    = EARTH
REF_FRAME      = TEME
TIME_SYSTEM    = UTC
MEAN_ELEMENT_THEORY = SGP/SGP4

EPOCH          = 2026-01-31T18:54:04.387392
MEAN_MOTION    = 14.30997602
ECCENTRICITY   = .00108831
INCLINATION    = 98.5835
RA_OF_ASC_NODE = 330.8437
ARG_OF_PERICENTER = 299.7512
MEAN_ANOMALY   = 60.2587

EPHEMERIS_TYPE = 0
CLASSIFICATION_TYPE = U
NORAD_CAT_ID   = 27422
ELEMENT_SET_NO = 999
REV_AT_EPOCH   = 23874
BSTAR          = .15345425E-3
MEAN_MOTION_DOT = .36E-5
MEAN_MOTION_DDOT = 0

CCSDS_OMM_VERS = 2.0
CREATION_DATE  = 
ORIGINATOR     = 

OBJECT_NAME    = AQUA
OBJECT_ID      = 2002-022A
CENTER_NAME    = EARTH
REF_FRAME      = TEME
TIME_SYSTEM    = UTC
MEAN_ELEMENT_THEORY = SGP/SGP4

EPOCH          = 2026-02-01T01:37:26.919552
MEAN_MOTION    = 14.61880202
ECCENTRICITY   = .00017394
INCLINATION    = 98.4108
RA_OF_ASC_NODE = 358.7849
ARG_OF_PERICENTER = 59.9890
MEAN_ANOMALY   = 2.2854

EPHEMERIS_TYPE = 0
CLASSIFICATION_TYPE = U
NORAD_CAT_ID   = 27424
ELEMENT_SET_NO = 999
REV_AT_EPOCH   = 26338
BSTAR          = .24931428E-3
MEAN_MOTION_DOT = .1197E-4
MEAN_MOTION_DDOT = 0

CCSDS_OMM_VERS = 2.0
CREATION_DATE  = 
ORIGINATOR     = 

OBJECT_NAME    = CZ-4B R/B
OBJECT_ID      = 2002-024C
CENTER_NAME    = EARTH
REF_FRAME      = TEME
TIME_SYSTEM    = UTC
MEAN_ELEMENT_THEORY = SGP/SGP4

EPOCH          = 2026-02-01T03:22:53.075712
MEAN_MOTION    = 14.14540520
ECCENTRICITY   = .0050977
INCLINATION    = 98.8917
RA_OF_ASC_NODE = 85.7177
ARG_OF_PERICENTER = 126.2787
MEAN_ANOMALY   = 249.9307

EPHEMERIS_TYPE = 0
CLASSIFICATION_TYPE = U
NORAD_CAT_ID   = 27432
ELEMENT_SET_NO = 999
REV_AT_EPOCH   = 22407
BSTAR          = .48985308E-4
MEAN_MOTION_DOT = .51E-6
MEAN_MOTION_DDOT = 0

CCSDS_OMM_VERS = 2.0
CREATION_DATE  = 
ORIGINATOR     = 

OBJECT_NAME    = MIDORI II (ADEOS-II)
OBJECT_ID      = 2002-056A
CENTER_NAME    = EARTH
REF_FRAME      = TEME
TIME_SYSTEM    = UTC
MEAN_ELEMENT_THEORY = SGP/SGP4

EPOCH          = 2026-02-01T02:54:00.757440
MEAN_MOTION    = 14.29254952
ECCENTRICITY   = .00020804
INCLINATION    = 98.7706
RA_OF_ASC_NODE = 350.3616
ARG_OF_PERICENTER = 94.1121
MEAN_ANOMALY   = 266.0298

EPHEMERIS_TYPE = 0
CLASSIFICATION_TYPE = U
NORAD_CAT_ID   = 27597
ELEMENT_SET_NO = 999
REV_AT_EPOCH   = 20507
BSTAR          = .15397967E-3
MEAN_MOTION_DOT = .346E-5
MEAN_MOTION_DDOT = 0

CCSDS_OMM_VERS = 2.0
CREATION_DATE  = 
ORIGINATOR     = 

OBJECT_NAME    = H-2A R/B
OBJECT_ID      = 2002-056E
CENTER_NAME    = EARTH
REF_FRAME      = TEME
TIME_SYSTEM    = UTC
MEAN_ELEMENT_THEORY = SGP/SGP4

EPOCH          = 2026-01-31T23:55:32.763072
MEAN_MOTION    = 14.33732074
ECCENTRICITY   = .006902
INCLINATION    = 98.3135
RA_OF_ASC_NODE = 353.7746
ARG_OF_PERICENTER = 271.0877
MEAN_ANOMALY   = 138.9152

EPHEMERIS_TYPE = 0
CLASSIFICATION_TYPE = U
NORAD_CAT_ID   = 27601
ELEMENT_SET_NO = 999
REV_AT_EPOCH   = 20885
BSTAR          = .14224864E-3
MEAN_MOTION_DOT = .363E-5
MEAN_MOTION_DDOT = 0

CCSDS_OMM_VERS = 2.0
CREATION_DATE  = 
ORIGINATOR     = 

OBJECT_NAME    = CZ-4B R/B
OBJECT_ID      = 2003-049C
CENTER_NAME    = EARTH
REF_FRAME      = TEME
TIME_SYSTEM    = UTC
MEAN_ELEMENT_THEORY = SGP/SGP4

EPOCH          = 2026-02-01T00:07:10.666848
MEAN_MOTION    = 14.54976030
ECCENTRICITY   = .00479378
INCLINATION    = 98.6835
RA_OF_ASC_NODE = 25.4828
ARG_OF_PERICENTER = 345.0777
MEAN_ANOMALY   = 14.9002

EPHEMERIS_TYPE = 0
CLASSIFICATION_TYPE = U
NORAD_CAT_ID   = 28059
ELEMENT_SET_NO = 999
REV_AT_EPOCH   = 18126
BSTAR          = .13485406E-3
MEAN_MOTION_DOT = .537E-5
MEAN_MOTION_DDOT = 0

CCSDS_OMM_VERS = 2.0
CREATION_DATE  = 
ORIGINATOR     = 

OBJECT_NAME    = CZ-2C R/B
OBJECT_ID      = 2004-012C
CENTER_NAME    = EARTH
REF_FRAME      = TEME
TIME_SYSTEM    = UTC
MEAN_ELEMENT_THEORY = SGP/SGP4

EPOCH          = 2026-02-01T02:26:16.488672
MEAN_MOTION    = 15.60361152
ECCENTRICITY   = .00166329
INCLINATION    = 97.7328
RA_OF_ASC_NODE = 94.0343
ARG_OF_PERICENTER = 86.3445
MEAN_ANOMALY   = 273.9713

EPHEMERIS_TYPE = 0
CLASSIFICATION_TYPE = U
NORAD_CAT_ID   = 28222
ELEMENT_SET_NO = 999
REV_AT_EPOCH   = 19856
BSTAR          = .5412183E-3
MEAN_MOTION_DOT = .44665E-3
MEAN_MOTION_DDOT = 0

CCSDS_OMM_VERS = 2.0
CREATION_DATE  = 
ORIGINATOR     = 

OBJECT_NAME    = SL-16 R/B
OBJECT_ID      = 2004-021B
CENTER_NAME    = EARTH
REF_FRAME      = TEME
TIME_SYSTEM    = UTC
MEAN_ELEMENT_THEORY = SGP/SGP4

EPOCH          = 2026-01-31T21:33:54.905760
MEAN_MOTION    = 14.14589658
ECCENTRICITY   = .00026887
INCLINATION    = 71.0014
RA_OF_ASC_NODE = 309.7042
ARG_OF_PERICENTER = 101.8665
MEAN_ANOMALY   = 258.2759

EPHEMERIS_TYPE = 0
CLASSIFICATION_TYPE = U
NORAD_CAT_ID   = 28353
ELEMENT_SET_NO = 999
REV_AT_EPOCH   = 11763
BSTAR          = -.71116475E-4
MEAN_MOTION_DOT = -.184E-5
MEAN_MOTION_DDOT = 0

CCSDS_OMM_VERS = 2.0
CREATION_DATE  = 
ORIGINATOR     = 

OBJECT_NAME    = CZ-4B R/B
OBJECT_ID      = 2004-035C
CENTER_NAME    = EARTH
REF_FRAME      = TEME
TIME_SYSTEM    = UTC
MEAN_ELEMENT_THEORY = SGP/SGP4

EPOCH          = 2026-01-31T15:56:43.188000
MEAN_MOTION    = 15.28363552
ECCENTRICITY   = .00343408
INCLINATION    = 97.3552
RA_OF_ASC_NODE = 66.3608
ARG_OF_PERICENTER = 99.7291
MEAN_ANOMALY   = 260.7830

EPHEMERIS_TYPE = 0
CLASSIFICATION_TYPE = U
NORAD_CAT_ID   = 28415
ELEMENT_SET_NO = 999
REV_AT_EPOCH   = 17425
BSTAR          = .26617467E-3
MEAN_MOTION_DOT = .7406E-4
MEAN_MOTION_DDOT = 0

CCSDS_OMM_VERS = 2.0
CREATION_DATE  = 
ORIGINATOR     = 

OBJECT_NAME    = CZ-2C R/B
OBJECT_ID      = 2004-046B
CENTER_NAME    = EARTH
REF_FRAME      = TEME
TIME_SYSTEM    = UTC
MEAN_ELEMENT_THEORY = SGP/SGP4

EPOCH          = 2026-02-01T00:34:06.483360
MEAN_MOTION    = 14.26977710
ECCENTRICITY   = .01381914
INCLINATION    = 98.1999
RA_OF_ASC_NODE = 309.2839
ARG_OF_PERICENTER = 263.3122
MEAN_ANOMALY   = 95.2316

EPHEMERIS_TYPE = 0
CLASSIFICATION_TYPE = U
NORAD_CAT_ID   = 28480
ELEMENT_SET_NO = 999
REV_AT_EPOCH   = 10327
BSTAR          = .82334504E-4
MEAN_MOTION_DOT = .179E-5
MEAN_MOTION_DDOT = 0

CCSDS_OMM_VERS = 2.0
CREATION_DATE  = 
ORIGINATOR     = 

OBJECT_NAME    = ARIANE 5 R/B
OBJECT_ID      = 2004-049H
CENTER_NAME    = EARTH
REF_FRAME      = TEME
TIME_SYSTEM    = UTC
MEAN_ELEMENT_THEORY = SGP/SGP4

EPOCH          = 2026-01-31T21:58:53.409216
MEAN_MOTION    = 14.85182255
ECCENTRICITY   = .00854356
INCLINATION    = 98.2568
RA_OF_ASC_NODE = 199.0125
ARG_OF_PERICENTER = 110.0267
MEAN_ANOMALY   = 251.0170

EPHEMERIS_TYPE = 0
CLASSIFICATION_TYPE = U
NORAD_CAT_ID   = 28499
ELEMENT_SET_NO = 999
REV_AT_EPOCH   = 14033
BSTAR          = .14275769E-3
MEAN_MOTION_DOT = .1242E-4
MEAN_MOTION_DDOT = 0

CCSDS_OMM_VERS = 2.0
CREATION_DATE  = 
ORIGINATOR     = 

OBJECT_NAME    = CZ-2D R/B
OBJECT_ID      = 2005-024B
CENTER_NAME    = EARTH
REF_FRAME      = TEME
TIME_SYSTEM    = UTC
MEAN_ELEMENT_THEORY = SGP/SGP4

EPOCH          = 2026-01-31T18:57:18.240480
MEAN_MOTION    = 15.56922605
ECCENTRICITY   = .00066636
INCLINATION    = 97.3612
RA_OF_ASC_NODE = 45.6755
ARG_OF_PERICENTER = 136.5502
MEAN_ANOMALY   = 223.6279

EPHEMERIS_TYPE = 0
CLASSIFICATION_TYPE = U
NORAD_CAT_ID   = 28738
ELEMENT_SET_NO = 999
REV_AT_EPOCH   = 13403
BSTAR          = .46781349E-3
MEAN_MOTION_DOT = .33678E-3
MEAN_MOTION_DDOT = 0

