IDEFIX & ARIANE 42P R/B 
1 27422U 02021B   26031.78755078  .00000360  00000+0  15345-3 0  9990
2 27422  98.5835 330.8437 0010883 299.7512  60.2587 14.30997602238743
AQUA                    
1 27424U 02022A   26032.06767268  .00001197  00000+0  24931-3 0  9999
2 27424  98.4108 358.7849 0001739  59.9890   2.2854 14.61880202263380
CZ-4B R/B               
1 27432U 02024C   26032.14089208  .00000051  00000+0  48985-4 0  9994
2 27432  98.8917  85.7177 0050977 126.2787 249.9307 14.14540520224073
MIDORI II (ADEOS-II)    
1 27597U 02056A   26032.12084210  .00000346  00000+0  15398-3 0  9995
2 27597  98.7706 350.3616 0002080  94.1121 266.0298 14.29254952205071
H-2A R/B                
1 27601U 02056E   26031.99690698  .00000363  00000+0  14225-3 0  9995
2 27601  98.3135 353.7746 0069020 271.0877 138.9152 14.33732074208857
CZ-4B R/B               
1 28059U 03049C   26032.00498457  .00000537  00000+0  13485-3 0  9998
2 28059  98.6835  25.4828 0047937 345.0777  14.9002 14.54976030181260
CZ-2C R/B               
1 28222U 04012C   26032.10157973  .00044665  00000+0  54122-3 0  9990
2 28222  97.7328  94.0343 0016632  86.3445 273.9713 15.60361152198566
SL-16 R/B               
1 28353U 04021B   26031.89855215 -.00000184  00000+0 -71116-4 0  9997
2 28353  71.0014 309.7042 0002688 101.8665 258.2759 14.14589658117639
CZ-4B R/B               
1 28415U 04035C   26031.66438875  .00007406  00000+0  26617-3 0  9992
2 28415  97.3552  66.3608 0034340  99.7291 260.7830 15.28363552174258
CZ-2C R/B               
1 28480U 04046B   26032.02368615  .00000179  00000+0  82335-4 0  9991
2 28480  98.1999 309.2839 0138191 263.3122  95.2316 14.26977710103278
ARIANE 5 R/B            
1 28499U 04049H   26031.91589594  .00001242  00000+0  14276-3 0  9992
2 28499  98.2568 199.0125 0085435 110.0267 251.0170 14.85182255140339
CZ-2D R/B               
1 28738U 05024B   26031.78979445  .00033678  00000+0  46781-3 0  9999
2 28738  97.3612  45.6755 0006663 136.5502 223.6279 15.56922605134036
